start=new Date('2022-07-13T00:00:00.000Z').valueOf();
sats=[{"LAUNCH_DATE":"2022-03-03","SEMIMAJOR_AXIS":"6917.898","CLASSIFICATION_TYPE":"U","TLE_LINE2":"2 51893  53.2153 235.6215 0001570  51.6767 184.5395 15.08834359  1301","MEAN_MOTION_DOT":"0.00029236","ECCENTRICITY":"0.00015700","RA_OF_ASC_NODE":"235.6215","MEAN_MOTION_DDOT":"0.0000000000000","REF_FRAME":"TEME","COUNTRY_CODE":"US","MEAN_ANOMALY":"184.5395","PERIOD":"95.438","SITE":"AFETR","ARG_OF_PERICENTER":"51.6767","TIME_SYSTEM":"UTC","BSTAR":"0.00184770000000","RCS_SIZE":"LARGE","NORAD_CAT_ID":"51893","OBJECT_ID":"2022-022AT","INCLINATION":"53.2153","CENTER_NAME":"EARTH","GP_ID":"208001010","DECAY_DATE":null,"REV_AT_EPOCH":"130","APOAPSIS":"540.849","MEAN_ELEMENT_THEORY":"SGP4","OBJECT_NAME":"STARLINK-3579","FILE":"3512432","ELEMENT_SET_NO":"999","MEAN_MOTION":"15.08834359","PERIAPSIS":"538.677","EPOCH":"2022-07-12T22:00:00.999936","TLE_LINE1":"1 51893U 22022AT  22193.91667824  .00029236  00000-0  18477-2 0  9995","OBJECT_TYPE":"PAYLOAD","EPHEMERIS_TYPE":"0"},{"FILE":"3512432","OBJECT_NAME":"STARLINK-3595","MEAN_ELEMENT_THEORY":"SGP4","EPHEMERIS_TYPE":"0","TLE_LINE1":"1 51894U 22022AU  22193.91667824  .00028870  00000-0  18249-2 0  9996","OBJECT_TYPE":"PAYLOAD","EPOCH":"2022-07-12T22:00:00.999936","PERIAPSIS":"538.606","MEAN_MOTION":"15.08834460","ELEMENT_SET_NO":"999","CENTER_NAME":"EARTH","INCLINATION":"53.2158","APOAPSIS":"540.919","REV_AT_EPOCH":"130","DECAY_DATE":null,"GP_ID":"208000274","RCS_SIZE":"LARGE","BSTAR":"0.00182490000000","TIME_SYSTEM":"UTC","OBJECT_ID":"2022-022AU","NORAD_CAT_ID":"51894","RA_OF_ASC_NODE":"235.6235","ECCENTRICITY":"0.00016720","MEAN_MOTION_DOT":"0.00028870","TLE_LINE2":"2 51894  53.2158 235.6235 0001672  45.0644 171.1657 15.08834460  1309","SEMIMAJOR_AXIS":"6917.897","CLASSIFICATION_TYPE":"U","LAUNCH_DATE":"2022-03-03","SITE":"AFETR","ARG_OF_PERICENTER":"45.0644","PERIOD":"95.438","MEAN_ANOMALY":"171.1657","COUNTRY_CODE":"US","MEAN_MOTION_DDOT":"0.0000000000000","REF_FRAME":"TEME"},{"COUNTRY_CODE":"US","MEAN_ANOMALY":"207.5077","PERIOD":"95.438","ARG_OF_PERICENTER":"48.7449","SITE":"AFETR","MEAN_MOTION_DDOT":"0.0000000000000","REF_FRAME":"TEME","MEAN_MOTION_DOT":"0.00029327","ECCENTRICITY":"0.00019450","RA_OF_ASC_NODE":"235.6214","LAUNCH_DATE":"2022-03-03","CLASSIFICATION_TYPE":"U","SEMIMAJOR_AXIS":"6917.920","TLE_LINE2":"2 51895  53.2168 235.6214 0001945  48.7449 207.5077 15.08826935  1302","NORAD_CAT_ID":"51895","OBJECT_ID":"2022-022AV","RCS_SIZE":"LARGE","TIME_SYSTEM":"UTC","BSTAR":"0.00185370000000","DECAY_DATE":null,"REV_AT_EPOCH":"130","APOAPSIS":"541.131","GP_ID":"208000524","INCLINATION":"53.2168","CENTER_NAME":"EARTH","PERIAPSIS":"538.440","EPOCH":"2022-07-12T22:00:00.999936","TLE_LINE1":"1 51895U 22022AV  22193.91667824  .00029327  00000-0  18537-2 0  9995","OBJECT_TYPE":"PAYLOAD","EPHEMERIS_TYPE":"0","ELEMENT_SET_NO":"999","MEAN_MOTION":"15.08826935","MEAN_ELEMENT_THEORY":"SGP4","OBJECT_NAME":"STARLINK-3594","FILE":"3512432"},{"INCLINATION":"53.2163","CENTER_NAME":"EARTH","DECAY_DATE":null,"REV_AT_EPOCH":"130","APOAPSIS":"540.909","GP_ID":"208001276","MEAN_ELEMENT_THEORY":"SGP4","OBJECT_NAME":"STARLINK-3593","FILE":"3512432","PERIAPSIS":"538.660","EPOCH":"2022-07-12T22:00:00.999936","TLE_LINE1":"1 51896U 22022AW  22193.91667824  .00029116  00000-0  18406-2 0  9997","EPHEMERIS_TYPE":"0","OBJECT_TYPE":"PAYLOAD","ELEMENT_SET_NO":"999","MEAN_MOTION":"15.08827158","MEAN_MOTION_DOT":"0.00029116","ECCENTRICITY":"0.00016260","RA_OF_ASC_NODE":"235.6212","LAUNCH_DATE":"2022-03-03","SEMIMAJOR_AXIS":"6917.920","CLASSIFICATION_TYPE":"U","TLE_LINE2":"2 51896  53.2163 235.6212 0001626  39.6961 211.3536 15.08827158  1301","COUNTRY_CODE":"US","MEAN_ANOMALY":"211.3536","PERIOD":"95.438","SITE":"AFETR","ARG_OF_PERICENTER":"39.6961","MEAN_MOTION_DDOT":"0.0000000000000","REF_FRAME":"TEME","RCS_SIZE":"LARGE","TIME_SYSTEM":"UTC","BSTAR":"0.00184060000000","NORAD_CAT_ID":"51896","OBJECT_ID":"2022-022AW"},{"APOAPSIS":"540.558","REV_AT_EPOCH":"2163","DECAY_DATE":null,"GP_ID":"208007088","INCLINATION":"53.2156","CENTER_NAME":"EARTH","TLE_LINE1":"1 51897U 22022AX  22194.25001157 -.00064426  00000-0 -40622-2 0  9997","EPHEMERIS_TYPE":"0","OBJECT_TYPE":"PAYLOAD","EPOCH":"2022-07-13T06:00:00.999648","PERIAPSIS":"538.700","MEAN_MOTION":"15.08878190","ELEMENT_SET_NO":"999","OBJECT_NAME":"STARLINK-3598","FILE":"3512633","MEAN_ELEMENT_THEORY":"SGP4","SITE":"AFETR","ARG_OF_PERICENTER":"57.2320","PERIOD":"95.435","MEAN_ANOMALY":"230.6041","COUNTRY_CODE":"US","REF_FRAME":"TEME","MEAN_MOTION_DDOT":"0.0000000000000","RA_OF_ASC_NODE":"234.1263","ECCENTRICITY":"0.00013430","MEAN_MOTION_DOT":"-0.00064426","TLE_LINE2":"2 51897  53.2156 234.1263 0001343  57.2320 230.6041 15.08878190 21630","CLASSIFICATION_TYPE":"U","SEMIMAJOR_AXIS":"6917.764","LAUNCH_DATE":"2022-03-03","OBJECT_ID":"2022-022AX","NORAD_CAT_ID":"51897","RCS_SIZE":"LARGE","BSTAR":"-0.00406220000000","TIME_SYSTEM":"UTC"},{"MEAN_MOTION":"15.08843771","ELEMENT_SET_NO":"999","EPOCH":"2022-07-12T22:00:00.999936","TLE_LINE1":"1 51898U 22022AY  22193.91667824  .00030640  00000-0  19347-2 0  9998","EPHEMERIS_TYPE":"0","OBJECT_TYPE":"PAYLOAD","PERIAPSIS":"538.792","MEAN_ELEMENT_THEORY":"SGP4","OBJECT_NAME":"STARLINK-3597","FILE":"3512432","GP_ID":"207999775","APOAPSIS":"540.675","DECAY_DATE":null,"REV_AT_EPOCH":"130","INCLINATION":"53.2153","CENTER_NAME":"EARTH","NORAD_CAT_ID":"51898","OBJECT_ID":"2022-022AY","BSTAR":"0.00193470000000","TIME_SYSTEM":"UTC","RCS_SIZE":"LARGE","MEAN_MOTION_DDOT":"0.0000000000000","REF_FRAME":"TEME","PERIOD":"95.437","ARG_OF_PERICENTER":"64.6343","SITE":"AFETR","COUNTRY_CODE":"US","MEAN_ANOMALY":"231.5282","CLASSIFICATION_TYPE":"U","SEMIMAJOR_AXIS":"6917.869","TLE_LINE2":"2 51898  53.2153 235.6221 0001361  64.6343 231.5282 15.08843771  1301","LAUNCH_DATE":"2022-03-03","RA_OF_ASC_NODE":"235.6221","MEAN_MOTION_DOT":"0.00030640","ECCENTRICITY":"0.00013610"},{"FILE":"3512633","OBJECT_NAME":"STARLINK-3700","MEAN_ELEMENT_THEORY":"SGP4","ELEMENT_SET_NO":"999","MEAN_MOTION":"15.08900354","PERIAPSIS":"538.351","TLE_LINE1":"1 51956U 22025A   22194.25001157 -.00193493  00000-0 -12451-1 0  9991","EPHEMERIS_TYPE":"0","OBJECT_TYPE":"PAYLOAD","EPOCH":"2022-07-13T06:00:00.999648","INCLINATION":"53.2171","CENTER_NAME":"EARTH","GP_ID":"208006856","REV_AT_EPOCH":"2068","DECAY_DATE":null,"APOAPSIS":"540.771","TIME_SYSTEM":"UTC","BSTAR":"-0.01245100000000","RCS_SIZE":"LARGE","OBJECT_ID":"2022-025A","NORAD_CAT_ID":"51956","LAUNCH_DATE":"2022-03-09","TLE_LINE2":"2 51956  53.2171 264.1393 0001749  52.2946 130.5527 15.08900354 20688","CLASSIFICATION_TYPE":"U","SEMIMAJOR_AXIS":"6917.696","ECCENTRICITY":"0.00017490","MEAN_MOTION_DOT":"-0.00193493","RA_OF_ASC_NODE":"264.1393","MEAN_MOTION_DDOT":"0.0000000000000","REF_FRAME":"TEME","MEAN_ANOMALY":"130.5527","COUNTRY_CODE":"US","SITE":"AFETR","ARG_OF_PERICENTER":"52.2946","PERIOD":"95.434"},{"TIME_SYSTEM":"UTC","BSTAR":"-0.00082756000000","RCS_SIZE":"LARGE","OBJECT_ID":"2022-025B","NORAD_CAT_ID":"51957","LAUNCH_DATE":"2022-03-09","TLE_LINE2":"2 51957  53.2139 265.6351 0001734  51.2863 219.9851 15.08863653  1304","SEMIMAJOR_AXIS":"6917.808","CLASSIFICATION_TYPE":"U","ECCENTRICITY":"0.00017340","MEAN_MOTION_DOT":"-0.00013443","RA_OF_ASC_NODE":"265.6351","MEAN_MOTION_DDOT":"0.0000000000000","REF_FRAME":"TEME","MEAN_ANOMALY":"219.9851","COUNTRY_CODE":"US","ARG_OF_PERICENTER":"51.2863","SITE":"AFETR","PERIOD":"95.436","FILE":"3512432","OBJECT_NAME":"STARLINK-3694","MEAN_ELEMENT_THEORY":"SGP4","ELEMENT_SET_NO":"999","MEAN_MOTION":"15.08863653","PERIAPSIS":"538.474","OBJECT_TYPE":"PAYLOAD","TLE_LINE1":"1 51957U 22025B   22193.91667824 -.00013443  00000-0 -82756-3 0  9996","EPHEMERIS_TYPE":"0","EPOCH":"2022-07-12T22:00:00.999936","INCLINATION":"53.2139","CENTER_NAME":"EARTH","GP_ID":"208001014","REV_AT_EPOCH":"130","DECAY_DATE":null,"APOAPSIS":"540.873"},{"CENTER_NAME":"EARTH","INCLINATION":"53.2171","GP_ID":"208000278","DECAY_DATE":null,"REV_AT_EPOCH":"130","APOAPSIS":"541.033","MEAN_ELEMENT_THEORY":"SGP4","FILE":"3512432","OBJECT_NAME":"STARLINK-3692","ELEMENT_SET_NO":"999","MEAN_MOTION":"15.08869332","PERIAPSIS":"538.278","EPOCH":"2022-07-12T22:00:00.999936","OBJECT_TYPE":"PAYLOAD","TLE_LINE1":"1 51958U 22025C   22193.91667824 -.00016546  00000-0 -10230-2 0  9991","EPHEMERIS_TYPE":"0","LAUNCH_DATE":"2022-03-09","CLASSIFICATION_TYPE":"U","SEMIMAJOR_AXIS":"6917.791","TLE_LINE2":"2 51958  53.2171 265.6467 0001991  40.7755 150.4824 15.08869332  1306","MEAN_MOTION_DOT":"-0.00016546","ECCENTRICITY":"0.00019910","RA_OF_ASC_NODE":"265.6467","MEAN_MOTION_DDOT":"0.0000000000000","REF_FRAME":"TEME","COUNTRY_CODE":"US","MEAN_ANOMALY":"150.4824","PERIOD":"95.436","ARG_OF_PERICENTER":"40.7755","SITE":"AFETR","TIME_SYSTEM":"UTC","BSTAR":"-0.00102300000000","RCS_SIZE":"LARGE","NORAD_CAT_ID":"51958","OBJECT_ID":"2022-025C"},{"MEAN_MOTION_DDOT":"0.0000000000000","REF_FRAME":"TEME","COUNTRY_CODE":"US","MEAN_ANOMALY":"219.2384","PERIOD":"95.435","SITE":"AFETR","ARG_OF_PERICENTER":"43.5860","LAUNCH_DATE":"2022-03-09","SEMIMAJOR_AXIS":"6917.746","CLASSIFICATION_TYPE":"U","TLE_LINE2":"2 51959  53.2164 264.1376 0001839  43.5860 219.2384 15.08884000 20687","MEAN_MOTION_DOT":"-0.00130337","ECCENTRICITY":"0.00018390","RA_OF_ASC_NODE":"264.1376","NORAD_CAT_ID":"51959","OBJECT_ID":"2022-025D","TIME_SYSTEM":"UTC","BSTAR":"-0.00831120000000","RCS_SIZE":"LARGE","GP_ID":"208007104","DECAY_DATE":null,"REV_AT_EPOCH":"2068","APOAPSIS":"540.883","INCLINATION":"53.2164","CENTER_NAME":"EARTH","ELEMENT_SET_NO":"999","MEAN_MOTION":"15.08884000","PERIAPSIS":"538.339","EPOCH":"2022-07-13T06:00:00.999648","TLE_LINE1":"1 51959U 22025D   22194.25001157 -.00130337  00000-0 -83112-2 0  9995","OBJECT_TYPE":"PAYLOAD","EPHEMERIS_TYPE":"0","MEAN_ELEMENT_THEORY":"SGP4","FILE":"3512628","OBJECT_NAME":"STARLINK-3704"}];
